[{"OBJECT_NAME":"STARLINK-6182","OBJECT_ID":"2023-083C","EPOCH":"2026-03-09T09:47:51.413280","MEAN_MOTION":15.02534775,"ECCENTRICITY":0.00013505,"INCLINATION":43.0024,"RA_OF_ASC_NODE":83.6866,"ARG_OF_PERICENTER":261.6237,"MEAN_ANOMALY":98.4452,"EPHEMERIS_TYPE":0,"CLASSIFICATION_TYPE":"U","NORAD_CAT_ID":56878,"ELEMENT_SET_NO":999,"REV_AT_EPOCH":15162,"BSTAR":-7.617866e-6,"MEAN_MOTION_DOT":-3.07e-6,"MEAN_MOTION_DDOT":0},{"OBJECT_NAME":"IMS-1","OBJECT_ID":"2008-021D","EPOCH":"2026-03-09T22:27:26.707392","MEAN_MOTION":15.03517095,"ECCENTRICITY":0.00068607,"INCLINATION":97.9418,"RA_OF_ASC_NODE":52.6663,"ARG_OF_PERICENTER":75.5168,"MEAN_ANOMALY":284.6817,"EPHEMERIS_TYPE":0,"CLASSIFICATION_TYPE":"U","NORAD_CAT_ID":32786,"ELEMENT_SET_NO":999,"REV_AT_EPOCH":96828,"BSTAR":0.00046947389,"MEAN_MOTION_DOT":6.344e-5,"MEAN_MOTION_DDOT":0}]
